{"type":"FeatureCollection","crs":{"type":"name","properties":{"name":"EPSG:4326"}},"features":[{"type":"Feature","geometry":{"type":"Polygon","coordinates":[[[-70.661059881,-33.3993852171324],[-70.660619713,-33.4009632861324],[-70.658180976,-33.4005449091324],[-70.657919249,-33.4018068801324],[-70.657207061,-33.4053295681323],[-70.6571971549999,-33.4053281081324],[-70.653098558,-33.4063928331323],[-70.653491582,-33.4112906611323],[-70.652687976,-33.4112833351323],[-70.652686713,-33.4136822171323],[-70.6526774,-33.4147414011322],[-70.652643488,-33.4174387171322],[-70.65012546,-33.4178503791322],[-70.650981255,-33.4228345211321],[-70.651049217,-33.4233481971321],[-70.651185318,-33.4249606381321],[-70.651368148,-33.4270422581321],[-70.6513691609999,-33.4270513341321],[-70.6514216639999,-33.4276317291321],[-70.6514504949999,-33.4280172721321],[-70.6517164329999,-33.431043681132],[-70.651725798,-33.431149656132],[-70.651662937,-33.431917624132],[-70.652925422,-33.431647364132],[-70.657507773,-33.4305632401321],[-70.660583205,-33.429588963132],[-70.667802404,-33.4272690441321],[-70.671308129,-33.4260807231321],[-70.6744572389999,-33.4220459011322],[-70.6782736769999,-33.4188640941322],[-70.679352712,-33.4137168691323],[-70.680434158,-33.4059344251323],[-70.681923804,-33.4030459161323],[-70.672183156,-33.3997086271324],[-70.672101282,-33.3998720601324],[-70.667777702,-33.3995100891325],[-70.667760647,-33.3995036341325],[-70.6677333979999,-33.3994933221324],[-70.667719424,-33.3994880331324],[-70.668159772,-33.3991179831324],[-70.668150489,-33.3991147641324],[-70.6681353659999,-33.3991095181325],[-70.6681276469999,-33.3991068411325],[-70.668105413,-33.3990991291325],[-70.6680428339999,-33.3990774231325],[-70.661059881,-33.3993852171324]]]},"properties":{"cut":"13108","name":"Independencia","credit":"Límite de referencia · cartografía Censo 2024","source":"https://services5.arcgis.com/hUyD8u3TeZLKPe4T/arcgis/rest/services/CENSO2024_V2_gdb/FeatureServer/0/query","retrievedAt":"2026-09-24","originalProperties":{"CUT":13108,"COMUNA":"INDEPENDENCIA"}}}]}